GLOBALSTAR M027         
1 25884U 99043B   24327.04144347 -.00000074  00000+0 -37360-3 0  9991
2 25884  52.0188 200.1286 0021952  19.2212 340.9405 11.04370914118351
GLOBALSTAR M054         
1 25885U 99043C   24327.51379453 -.00000065  00000+0  15588-3 0  9999
2 25885  52.0167   1.0583 0006243 183.4560 324.5631 11.39205890 95499
GLOBALSTAR M053         
1 25886U 99043D   24327.38672001 -.00000047  00000+0  64061-3 0  9990
2 25886  51.9990 296.9836 0003673  82.9773  87.2304 11.27660339 96111
GLOBALSTAR M058         
1 25907U 99049A   24327.31151737 -.00000027  00000+0  76763-3 0  9991
2 25907  51.9947 301.5841 0001412 240.1124 119.9571 11.93193167516842
GLOBALSTAR M050         
1 25908U 99049B   24327.18863770 -.00000110  00000+0 -24121-3 0  9999
2 25908  52.0005 325.0529 0009196 340.7678 123.8903 12.07444656123184
GLOBALSTAR M033         
1 25909U 99049C   24327.20076918 -.00000116  00000+0 -23875-3 0  9994
2 25909  51.9901 211.1499 0012130 193.7082 166.3437 12.20292447510476
GLOBALSTAR M055         
1 25910U 99049D   24327.26494560 -.00000048  00000+0  39796-3 0  9991
2 25910  52.0013 231.7884 0008013  62.1489 298.0173 12.29415074142838
