<?xml version="1.0" encoding="UTF-8"?>
<ndm xmlns:xsi="http://www.w3.org/2001/XMLSchema-instance" xsi:noNamespaceSchemaLocation="https://sanaregistry.org/r/ndmxml_unqualified/ndmxml-2.0.0-master-2.0.xsd">
<omm id="CCSDS_OMM_VERS" version="2.0">
<header><CREATION_DATE/><ORIGINATOR/></header><body><segment><metadata><OBJECT_NAME>GLOBALSTAR M027</OBJECT_NAME><OBJECT_ID>1999-043B</OBJECT_ID><CENTER_NAME>EARTH</CENTER_NAME><REF_FRAME>TEME</REF_FRAME><TIME_SYSTEM>UTC</TIME_SYSTEM><MEAN_ELEMENT_THEORY>SGP4</MEAN_ELEMENT_THEORY></metadata><data><meanElements><EPOCH>2024-11-22T00:59:40.715808</EPOCH><MEAN_MOTION>11.04370914</MEAN_MOTION><ECCENTRICITY>.0021952</ECCENTRICITY><INCLINATION>52.0188</INCLINATION><RA_OF_ASC_NODE>200.1286</RA_OF_ASC_NODE><ARG_OF_PERICENTER>19.2212</ARG_OF_PERICENTER><MEAN_ANOMALY>340.9405</MEAN_ANOMALY></meanElements><tleParameters><EPHEMERIS_TYPE>0</EPHEMERIS_TYPE><CLASSIFICATION_TYPE>U</CLASSIFICATION_TYPE><NORAD_CAT_ID>25884</NORAD_CAT_ID><ELEMENT_SET_NO>999</ELEMENT_SET_NO><REV_AT_EPOCH>11835</REV_AT_EPOCH><BSTAR>-.3736E-3</BSTAR><MEAN_MOTION_DOT>-.74E-6</MEAN_MOTION_DOT><MEAN_MOTION_DDOT>0</MEAN_MOTION_DDOT></tleParameters></data></segment></body></omm>
<omm id="CCSDS_OMM_VERS" version="2.0">
<header><CREATION_DATE/><ORIGINATOR/></header><body><segment><metadata><OBJECT_NAME>GLOBALSTAR M054</OBJECT_NAME><OBJECT_ID>1999-043C</OBJECT_ID><CENTER_NAME>EARTH</CENTER_NAME><REF_FRAME>TEME</REF_FRAME><TIME_SYSTEM>UTC</TIME_SYSTEM><MEAN_ELEMENT_THEORY>SGP4</MEAN_ELEMENT_THEORY></metadata><data><meanElements><EPOCH>2024-11-22T12:19:51.847392</EPOCH><MEAN_MOTION>11.39205890</MEAN_MOTION><ECCENTRICITY>.0006243</ECCENTRICITY><INCLINATION>52.0167</INCLINATION><RA_OF_ASC_NODE>1.0583</RA_OF_ASC_NODE><ARG_OF_PERICENTER>183.4560</ARG_OF_PERICENTER><MEAN_ANOMALY>324.5631</MEAN_ANOMALY></meanElements><tleParameters><EPHEMERIS_TYPE>0</EPHEMERIS_TYPE><CLASSIFICATION_TYPE>U</CLASSIFICATION_TYPE><NORAD_CAT_ID>25885</NORAD_CAT_ID><ELEMENT_SET_NO>999</ELEMENT_SET_NO><REV_AT_EPOCH>9549</REV_AT_EPOCH><BSTAR>.15588E-3</BSTAR><MEAN_MOTION_DOT>-.65E-6</MEAN_MOTION_DOT><MEAN_MOTION_DDOT>0</MEAN_MOTION_DDOT></tleParameters></data></segment></body></omm>
<omm id="CCSDS_OMM_VERS" version="2.0">
<header><CREATION_DATE/><ORIGINATOR/></header><body><segment><metadata><OBJECT_NAME>GLOBALSTAR M053</OBJECT_NAME><OBJECT_ID>1999-043D</OBJECT_ID><CENTER_NAME>EARTH</CENTER_NAME><REF_FRAME>TEME</REF_FRAME><TIME_SYSTEM>UTC</TIME_SYSTEM><MEAN_ELEMENT_THEORY>SGP4</MEAN_ELEMENT_THEORY></metadata><data><meanElements><EPOCH>2024-11-22T09:16:52.608864</EPOCH><MEAN_MOTION>11.27660339</MEAN_MOTION><ECCENTRICITY>.0003673</ECCENTRICITY><INCLINATION>51.9990</INCLINATION><RA_OF_ASC_NODE>296.9836</RA_OF_ASC_NODE><ARG_OF_PERICENTER>82.9773</ARG_OF_PERICENTER><MEAN_ANOMALY>87.2304</MEAN_ANOMALY></meanElements><tleParameters><EPHEMERIS_TYPE>0</EPHEMERIS_TYPE><CLASSIFICATION_TYPE>U</CLASSIFICATION_TYPE><NORAD_CAT_ID>25886</NORAD_CAT_ID><ELEMENT_SET_NO>999</ELEMENT_SET_NO><REV_AT_EPOCH>9611</REV_AT_EPOCH><BSTAR>.64061E-3</BSTAR><MEAN_MOTION_DOT>-.47E-6</MEAN_MOTION_DOT><MEAN_MOTION_DDOT>0</MEAN_MOTION_DDOT></tleParameters></data></segment></body></omm>
<omm id="CCSDS_OMM_VERS" version="2.0">
<header><CREATION_DATE/><ORIGINATOR/></header><body><segment><metadata><OBJECT_NAME>GLOBALSTAR M058</OBJECT_NAME><OBJECT_ID>1999-049A</OBJECT_ID><CENTER_NAME>EARTH</CENTER_NAME><REF_FRAME>TEME</REF_FRAME><TIME_SYSTEM>UTC</TIME_SYSTEM><MEAN_ELEMENT_THEORY>SGP4</MEAN_ELEMENT_THEORY></metadata><data><meanElements><EPOCH>2024-11-22T07:28:35.100768</EPOCH><MEAN_MOTION>11.93193167</MEAN_MOTION><ECCENTRICITY>.0001412</ECCENTRICITY><INCLINATION>51.9947</INCLINATION><RA_OF_ASC_NODE>301.5841</RA_OF_ASC_NODE><ARG_OF_PERICENTER>240.1124</ARG_OF_PERICENTER><MEAN_ANOMALY>119.9571</MEAN_ANOMALY></meanElements><tleParameters><EPHEMERIS_TYPE>0</EPHEMERIS_TYPE><CLASSIFICATION_TYPE>U</CLASSIFICATION_TYPE><NORAD_CAT_ID>25907</NORAD_CAT_ID><ELEMENT_SET_NO>999</ELEMENT_SET_NO><REV_AT_EPOCH>51684</REV_AT_EPOCH><BSTAR>.76763E-3</BSTAR><MEAN_MOTION_DOT>-.27E-6</MEAN_MOTION_DOT><MEAN_MOTION_DDOT>0</MEAN_MOTION_DDOT></tleParameters></data></segment></body></omm>
<omm id="CCSDS_OMM_VERS" version="2.0">
<header><CREATION_DATE/><ORIGINATOR/></header><body><segment><metadata><OBJECT_NAME>GLOBALSTAR M050</OBJECT_NAME><OBJECT_ID>1999-049B</OBJECT_ID><CENTER_NAME>EARTH</CENTER_NAME><REF_FRAME>TEME</REF_FRAME><TIME_SYSTEM>UTC</TIME_SYSTEM><MEAN_ELEMENT_THEORY>SGP4</MEAN_ELEMENT_THEORY></metadata><data><meanElements><EPOCH>2024-11-22T04:31:38.297280</EPOCH><MEAN_MOTION>12.07444656</MEAN_MOTION><ECCENTRICITY>.0009196</ECCENTRICITY><INCLINATION>52.0005</INCLINATION><RA_OF_ASC_NODE>325.0529</RA_OF_ASC_NODE><ARG_OF_PERICENTER>340.7678</ARG_OF_PERICENTER><MEAN_ANOMALY>123.8903</MEAN_ANOMALY></meanElements><tleParameters><EPHEMERIS_TYPE>0</EPHEMERIS_TYPE><CLASSIFICATION_TYPE>U</CLASSIFICATION_TYPE><NORAD_CAT_ID>25908</NORAD_CAT_ID><ELEMENT_SET_NO>999</ELEMENT_SET_NO><REV_AT_EPOCH>12318</REV_AT_EPOCH><BSTAR>-.24121E-3</BSTAR><MEAN_MOTION_DOT>-.11E-5</MEAN_MOTION_DOT><MEAN_MOTION_DDOT>0</MEAN_MOTION_DDOT></tleParameters></data></segment></body></omm>
<omm id="CCSDS_OMM_VERS" version="2.0">
<header><CREATION_DATE/><ORIGINATOR/></header><body><segment><metadata><OBJECT_NAME>GLOBALSTAR M033</OBJECT_NAME><OBJECT_ID>1999-049C</OBJECT_ID><CENTER_NAME>EARTH</CENTER_NAME><REF_FRAME>TEME</REF_FRAME><TIME_SYSTEM>UTC</TIME_SYSTEM><MEAN_ELEMENT_THEORY>SGP4</MEAN_ELEMENT_THEORY></metadata><data><meanElements><EPOCH>2024-11-22T04:49:06.457152</EPOCH><MEAN_MOTION>12.20292447</MEAN_MOTION><ECCENTRICITY>.001213</ECCENTRICITY><INCLINATION>51.9901</INCLINATION><RA_OF_ASC_NODE>211.1499</RA_OF_ASC_NODE><ARG_OF_PERICENTER>193.7082</ARG_OF_PERICENTER><MEAN_ANOMALY>166.3437</MEAN_ANOMALY></meanElements><tleParameters><EPHEMERIS_TYPE>0</EPHEMERIS_TYPE><CLASSIFICATION_TYPE>U</CLASSIFICATION_TYPE><NORAD_CAT_ID>25909</NORAD_CAT_ID><ELEMENT_SET_NO>999</ELEMENT_SET_NO><REV_AT_EPOCH>51047</REV_AT_EPOCH><BSTAR>-.23875E-3</BSTAR><MEAN_MOTION_DOT>-.116E-5</MEAN_MOTION_DOT><MEAN_MOTION_DDOT>0</MEAN_MOTION_DDOT></tleParameters></data></segment></body></omm>
<omm id="CCSDS_OMM_VERS" version="2.0">
<header><CREATION_DATE/><ORIGINATOR/></header><body><segment><metadata><OBJECT_NAME>GLOBALSTAR M055</OBJECT_NAME><OBJECT_ID>1999-049D</OBJECT_ID><CENTER_NAME>EARTH</CENTER_NAME><REF_FRAME>TEME</REF_FRAME><TIME_SYSTEM>UTC</TIME_SYSTEM><MEAN_ELEMENT_THEORY>SGP4</MEAN_ELEMENT_THEORY></metadata><data><meanElements><EPOCH>2024-11-22T06:21:31.299840</EPOCH><MEAN_MOTION>12.29415074</MEAN_MOTION><ECCENTRICITY>.0008013</ECCENTRICITY><INCLINATION>52.0013</INCLINATION><RA_OF_ASC_NODE>231.7884</RA_OF_ASC_NODE><ARG_OF_PERICENTER>62.1489</ARG_OF_PERICENTER><MEAN_ANOMALY>298.0173</MEAN_ANOMALY></meanElements><tleParameters><EPHEMERIS_TYPE>0</EPHEMERIS_TYPE><CLASSIFICATION_TYPE>U</CLASSIFICATION_TYPE><NORAD_CAT_ID>25910</NORAD_CAT_ID><ELEMENT_SET_NO>999</ELEMENT_SET_NO><REV_AT_EPOCH>14283</REV_AT_EPOCH><BSTAR>.39796E-3</BSTAR><MEAN_MOTION_DOT>-.48E-6</MEAN_MOTION_DOT><MEAN_MOTION_DDOT>0</MEAN_MOTION_DDOT></tleParameters></data></segment></body></omm>

</ndm>
